OBJECT_NAME,OBJECT_ID,EPOCH,MEAN_MOTION,ECCENTRICITY,INCLINATION,RA_OF_ASC_NODE,ARG_OF_PERICENTER,MEAN_ANOMALY,EPHEMERIS_TYPE,CLASSIFICATION_TYPE,NORAD_CAT_ID,ELEMENT_SET_NO,REV_AT_EPOCH,BSTAR,MEAN_MOTION_DOT,MEAN_MOTION_DDOT
STARLINK-38047,2026-150G,2026-07-13T11:54:48.333600,15.80918891,.00013225,97.2822,32.7730,107.7417,252.3995,0,U,69745,999,305,.14027642E-2,.27862E-2,0
STARLINK-38046,2026-150H,2026-07-13T11:52:02.311680,15.80930417,.00013711,97.2834,32.7772,109.3815,250.7602,0,U,69746,999,305,.14817092E-2,.295023E-2,0
STARLINK-38067,2026-150J,2026-07-13T14:00:01.000224,15.75224822,.00013204,97.2830,32.8507,74.3628,20.9892,0,U,69747,999,304,-.52416401E-3,-.77722E-3,0
STARLINK-37988,2026-150K,2026-07-13T14:00:01.000224,15.75192626,.00013502,97.2832,32.8548,77.3162,28.0415,0,U,69748,999,304,-.16459676E-3,-.24612E-3,0
STARLINK-37987,2026-150L,2026-07-13T14:00:01.000224,15.75228811,.00015135,97.2834,32.8652,86.5115,42.8455,0,U,69749,999,304,-.70769622E-3,-.104584E-2,0
STARLINK-38037,2026-150M,2026-07-13T13:16:36.483456,15.80791129,.00016456,97.2841,32.8494,87.5603,272.5853,0,U,69750,999,306,.11571806E-2,.227124E-2,0
STARLINK-38049,2026-150N,2026-07-13T13:15:08.593056,15.80787421,.00009787,97.2843,32.8516,33.6979,326.4352,0,U,69751,999,306,.11929419E-2,.234302E-2,0
STARLINK-38029,2026-150P,2026-07-13T13:06:51.657408,15.80796353,.00010636,97.2844,32.8591,60.8513,299.2861,0,U,69752,999,306,.11771091E-2,.231201E-2,0
STARLINK-37965,2026-150Q,2026-07-13T14:00:01.000224,15.75194705,.0001227,97.2845,32.8879,92.7324,92.6294,0,U,69753,999,304,-.18172808E-3,-.27155E-3,0
STARLINK-38048,2026-150R,2026-07-13T13:06:19.662624,15.80795567,.00007616,97.2841,32.8595,74.1887,285.9466,0,U,69754,999,306,.12017672E-2,.236176E-2,0
STARLINK-38006,2026-150S,2026-07-13T13:02:25.338912,15.80254491,.00032682,97.2832,32.8618,339.4703,20.6433,0,U,69755,999,306,.31052743E-3,.58242E-3,0
STARLINK-38036,2026-150T,2026-07-13T13:00:25.833024,15.80786479,.00006169,97.2845,32.8663,124.4224,235.7103,0,U,69756,999,306,.55227633E-3,.106803E-2,0
STARLINK-38058,2026-150U,2026-07-13T13:00:03.952224,15.80801549,.00015956,97.2834,32.8655,357.7901,2.3360,0,U,69757,999,306,.81467447E-3,.158674E-2,0
STARLINK-38066,2026-150V,2026-07-13T12:59:50.932608,15.80798318,.00011588,97.2847,32.8670,141.1397,218.9955,0,U,69758,999,306,.64477728E-3,.125046E-2,0
STARLINK-38035,2026-150W,2026-07-13T12:59:40.416000,15.80792622,.0000375,97.2844,32.8667,44.9028,315.2271,0,U,69759,999,306,.65227846E-3,.126491E-2,0
STARLINK-38056,2026-150X,2026-07-13T14:25:50.833056,15.80809271,.00019623,97.2860,32.9393,103.1615,256.9872,0,U,69760,999,307,.30995853E-3,.59622E-3,0
STARLINK-38069,2026-150Y,2026-07-13T14:00:01.000224,15.80825833,.00014263,97.2838,32.9299,75.8434,201.9306,0,U,69761,999,304,-.7639553E-5,-.1606E-4,0
STARLINK-38019,2026-150Z,2026-07-13T14:00:01.000224,15.75206205,.00004173,97.2843,32.9137,91.0068,150.3320,0,U,69762,999,304,-.30743206E-3,-.45769E-3,0
KUIPER-00258,2026-151A,2026-07-13T10:40:08.051232,15.35410069,.00122797,51.8672,188.9959,164.5620,195.5743,0,U,69763,999,174,-.18164709E-3,-.6745E-4,0
KUIPER-00526,2026-151B,2026-07-13T11:55:28.976160,15.37297052,.0005901,51.8750,188.6050,128.1674,231.9845,0,U,69764,999,175,.26423406E-3,.9431E-4,0
KUIPER-00558,2026-151C,2026-07-13T13:34:07.756320,15.36789887,.00076966,51.8751,188.3115,146.7500,213.3972,0,U,69765,999,176,.24405251E-3,.8536E-4,0
KUIPER-00569,2026-151D,2026-07-13T13:27:09.908640,15.37449100,.00051106,51.8774,188.2796,131.2926,228.8502,0,U,69766,999,176,.31096115E-3,.11226E-3,0
KUIPER-00589,2026-151E,2026-07-13T13:28:05.028384,15.37390788,.00053204,51.8742,188.2862,134.9982,225.1436,0,U,69767,999,176,.25453315E-3,.9097E-4,0
KUIPER-00598,2026-151F,2026-07-13T12:12:35.092800,15.35703367,.00083788,51.8636,188.6781,166.2010,193.9206,0,U,69768,999,175,.83295793E-2,.305674E-2,0
KUIPER-00604,2026-151G,2026-07-13T13:19:22.883808,15.38212378,.00028102,51.8785,188.2423,98.7045,261.4261,0,U,69769,999,176,.26978527E-3,.9934E-4,0
KUIPER-00609,2026-151H,2026-07-13T13:14:56.967072,15.38610931,.00011597,51.8788,188.2207,47.0207,313.0877,0,U,69770,999,176,.25218963E-3,.9385E-4,0
KUIPER-00611,2026-151J,2026-07-13T13:17:08.206080,15.38421200,.00017288,51.8787,188.2292,90.8995,269.2190,0,U,69771,999,176,.32346746E-3,.12077E-3,0
KUIPER-00612,2026-151K,2026-07-13T13:22:30.621504,15.37914338,.00037813,51.8778,188.2587,107.0931,253.0471,0,U,69772,999,176,.27663984E-3,.10096E-3,0
KUIPER-00614,2026-151L,2026-07-13T13:20:16.965888,15.38126955,.00028875,51.8795,188.2439,127.0228,233.1024,0,U,69773,999,176,.26386738E-3,.968E-4,0
KUIPER-00615,2026-151M,2026-07-13T11:56:25.430784,15.37209069,.00062574,51.8771,188.6041,141.8330,218.3101,0,U,69774,999,175,.28722563E-3,.10257E-3,0
